NORAD_CAT_ID,OBJECT_NAME,OBJECT_TYPE,EPOCH,MEAN_MOTION,ECCENTRICITY,INCLINATION,RA_OF_ASC_NODE,ARG_OF_PERICENTER,MEAN_ANOMALY,BSTAR,MEAN_MOTION_DOT,MEAN_MOTION_DDOT,TLE_LINE0,TLE_LINE1,TLE_LINE2,SEMIMAJOR_AXIS,PERIOD,APOGEE,PERIGEE,DECAYED
52857.0,STARLINK-4199,PAYLOAD,2023-02-12 15:13:08,15.08838772,8.39e-05,53.2189,16.7298,102.6632,257.4454,-1.2144e-05,-4.81e-06,0.0,0 STARLINK-4199,1 52857U 22062AD  23043.63412688 -.00000481  00000-0 -12144-4 0  9990,2 52857  53.2189  16.7298 0000839 102.6632 257.4454 15.08838772 37178,6917.884,95.438,540.33,539.169,0.0
52857.0,STARLINK-4199,PAYLOAD,2023-02-13 10:17:46,15.08861121,8.74e-05,53.2191,13.1613,98.6641,261.445,0.0010241,0.00016058,0.0,0 STARLINK-4199,1 52857U 22062AD  23044.42900776  .00016058  00000-0  10241-2 0  9997,2 52857  53.2191  13.1613 0000874  98.6641 261.4450 15.08861121 37294,6917.816,95.436,540.285,539.076,0.0
52857.0,STARLINK-4199,PAYLOAD,2023-02-13 15:03:56,15.08822796,4.91e-05,53.2181,12.2727,137.5085,222.5945,-0.00022023,-3.789e-05,0.0,0 STARLINK-4199,1 52857U 22062AD  23044.62773468 -.00003789  00000-0 -22023-3 0  9996,2 52857  53.2181  12.2727 0000491 137.5085 222.5945 15.08822796 37325,6917.933,95.439,540.138,539.458,0.0
52857.0,STARLINK-4199,PAYLOAD,2023-02-14 03:47:01,15.08852506,0.0001002,53.2184,9.8921,98.9056,261.205,0.0023748,0.00037722,0.0,0 STARLINK-4199,1 52857U 22062AD  23045.15765926  .00037722  00000-0  23748-2 0  9991,2 52857  53.2184   9.8921 0001002  98.9056 261.2050 15.08852506 37401,6917.842,95.437,540.4,539.014,0.0
52857.0,STARLINK-4199,PAYLOAD,2023-02-14 19:40:53,15.08836099,0.0001113,53.2183,6.9192,74.9013,285.2102,0.00065495,0.0001015,0.0,0 STARLINK-4199,1 52857U 22062AD  23045.82006334  .00010150  00000-0  65495-3 0  9998,2 52857  53.2183   6.9192 0001113  74.9013 285.2102 15.08836099 37502,6917.892,95.438,540.527,538.987,0.0
52857.0,STARLINK-4199,PAYLOAD,2023-02-15 03:37:49,15.08853232,0.0001089,53.2183,5.4308,86.0261,274.0855,0.0010011,0.00015686,0.0,0 STARLINK-4199,1 52857U 22062AD  23046.15126220  .00015686  00000-0  10011-2 0  9994,2 52857  53.2183   5.4308 0001089  86.0261 274.0855 15.08853232 37550,6917.84,95.437,540.458,538.952,0.0
52857.0,STARLINK-4199,PAYLOAD,2023-02-15 21:07:03,15.08862148,0.0001619,53.2198,2.1603,93.468,266.6497,0.0010923,0.00017149,0.0,0 STARLINK-4199,1 52857U 22062AD  23046.87989964  .00017149  00000-0  10923-2 0  9993,2 52857  53.2198   2.1603 0001619  93.4680 266.6497 15.08862148 37177,6917.813,95.436,540.798,538.558,0.0
52857.0,STARLINK-4199,PAYLOAD,2023-02-16 00:17:49,15.08872211,0.0001381,53.2183,1.5653,101.5446,258.5701,0.001233,0.00019407,0.0,0 STARLINK-4199,1 52857U 22062AD  23047.01237553  .00019407  00000-0  12330-2 0  9993,2 52857  53.2183   1.5653 0001381 101.5446 258.5701 15.08872211 37682,6917.782,95.436,540.602,538.692,0.0
52857.0,STARLINK-4199,PAYLOAD,2023-02-16 03:28:35,15.08889009,0.0001399,53.2197,0.9707,104.4883,255.6265,0.0017818,0.00028221,0.0,0 STARLINK-4199,1 52857U 22062AD  23047.14485069  .00028221  00000-0  17818-2 0  9994,2 52857  53.2197   0.9707 0001399 104.4883 255.6265 15.08889009 37705,6917.731,95.434,540.563,538.628,0.0
52857.0,STARLINK-4199,PAYLOAD,2023-02-16 22:33:08,15.08969127,0.0001263,53.2191,357.4031,99.7296,260.3839,0.0029043,0.00046403,0.0,0 STARLINK-4199,1 52857U 22062AD  23047.93968285  .00046403  00000-0  29043-2 0  9992,2 52857  53.2191 357.4031 0001263  99.7296 260.3839 15.08969127 37826,6917.486,95.429,540.224,538.477,0.0
52857.0,STARLINK-4199,PAYLOAD,2023-02-17 01:43:59,15.08852519,0.0002329,53.2194,356.8082,162.3069,197.8005,0.0019804,0.00031382,0.0,0 STARLINK-4199,1 52857U 22062AD  23048.07221536  .00031382  00000-0  19804-2 0  9993,2 52857  53.2194 356.8082 0002329 162.3069 197.8005 15.08852519 37844,6917.842,95.437,541.318,538.096,0.0
52857.0,STARLINK-4199,PAYLOAD,2023-02-17 12:51:42,15.08813167,7.96e-05,53.22,354.7264,67.163,292.9446,8.3348e-05,1.038e-05,0.0,0 STARLINK-4199,1 52857U 22062AD  23048.53590569  .00001038  00000-0  83348-4 0  9990,2 52857  53.2200 354.7264 0000796  67.1630 292.9446 15.08813167 37913,6917.962,95.439,540.378,539.277,0.0
52857.0,STARLINK-4199,PAYLOAD,2023-02-18 01:34:47,15.08834872,7.13e-05,53.2196,352.3508,79.3948,280.7124,0.00077775,0.0001211,0.0,0 STARLINK-4199,1 52857U 22062AD  23049.06582974  .00012110  00000-0  77775-3 0  9999,2 52857  53.2196 352.3508 0000713  79.3948 280.7124 15.08834872 37990,6917.896,95.438,540.254,539.268,0.0
52857.0,STARLINK-4199,PAYLOAD,2023-02-18 12:42:29,15.08843389,6.87e-05,53.22,350.2659,97.2553,262.8518,0.00067455,0.00010465,0.0,0 STARLINK-4199,1 52857U 22062AD  23049.52950881  .00010465  00000-0  67455-3 0  9991,2 52857  53.2200 350.2659 0000687  97.2553 262.8518 15.08843389 37576,6917.87,95.437,540.21,539.26,0.0
52857.0,STARLINK-4199,PAYLOAD,2023-02-19 03:00:57,15.08857059,0.0001051,53.2212,347.5937,126.1372,233.9717,0.00057834,8.933e-05,0.0,0 STARLINK-4199,1 52857U 22062AD  23050.12566414  .00008933  00000-0  57834-3 0  9991,2 52857  53.2212 347.5937 0001051 126.1372 233.9717 15.08857059 38158,6917.828,95.436,540.42,538.966,0.0
52857.0,STARLINK-4199,PAYLOAD,2023-02-19 12:33:16,15.08853059,5.97e-05,53.219,345.804,74.6959,285.4099,0.00050892,7.824e-05,0.0,0 STARLINK-4199,1 52857U 22062AD  23050.52310272  .00007824  00000-0  50892-3 0  9999,2 52857  53.2190 345.8040 0000597  74.6959 285.4099 15.08853059 38219,6917.84,95.437,540.118,539.292,0.0
52857.0,STARLINK-4199,PAYLOAD,2023-02-19 23:40:58,15.08837089,5.9e-05,53.2186,343.7269,93.4055,266.7005,-0.00010971,-2.033e-05,0.0,0 STARLINK-4199,1 52857U 22062AD  23050.98678568 -.00002033  00000-0 -10971-3 0  9997,2 52857  53.2186 343.7269 0000590  93.4055 266.7005 15.08837089 38284,6917.889,95.438,540.162,539.346,0.0
52857.0,STARLINK-4199,PAYLOAD,2023-02-20 12:24:03,15.08844744,9.78e-05,53.2195,341.3457,71.0645,289.0453,0.00015334,2.154e-05,0.0,0 STARLINK-4199,1 52857U 22062AD  23051.51670680  .00002154  00000-0  15334-3 0  9994,2 52857  53.2195 341.3457 0000978  71.0645 289.0453 15.08844744 37879,6917.866,95.437,540.407,539.054,0.0
52857.0,STARLINK-4199,PAYLOAD,2023-02-21 02:42:31,15.08843833,0.0001071,53.2202,338.6694,65.5098,294.6006,0.00019121,2.757e-05,0.0,0 STARLINK-4199,1 52857U 22062AD  23052.11286798  .00002757  00000-0  19121-3 0  9991,2 52857  53.2202 338.6694 0001071  65.5098 294.6006 15.08843833 38454,6917.869,95.437,540.475,538.993,0.0
52857.0,STARLINK-4199,PAYLOAD,2023-02-21 12:14:50,15.08851835,0.0001045,53.2208,336.8878,73.9324,286.1783,0.00032942,4.96e-05,0.0,0 STARLINK-4199,1 52857U 22062AD  23052.51030518  .00004960  00000-0  32942-3 0  9996,2 52857  53.2208 336.8878 0001045  73.9324 286.1783 15.08851835 38022,6917.844,95.437,540.432,538.986,0.0
52857.0,STARLINK-4199,PAYLOAD,2023-02-22 00:57:54,15.08861064,7.84e-05,53.2172,334.5077,80.1812,279.9269,0.0005335,8.218e-05,0.0,0 STARLINK-4199,1 52857U 22062AD  23053.04021966  .00008218  00000-0  53350-3 0  9998,2 52857  53.2172 334.5077 0000784  80.1812 279.9269 15.08861064 38595,6917.816,95.436,540.223,539.139,0.0
52857.0,STARLINK-4199,PAYLOAD,2023-02-22 13:41:00,15.0884381,7.5e-05,53.2194,332.1288,101.0667,259.041,-2.0011e-05,-6.06e-06,0.0,0 STARLINK-4199,1 52857U 22062AD  23053.57014254 -.00000606  00000-0 -20011-4 0  9992,2 52857  53.2194 332.1288 0000750 101.0667 259.0410 15.08843810 38182,6917.869,95.437,540.253,539.215,0.0
52857.0,STARLINK-4199,PAYLOAD,2023-02-22 18:27:10,15.08823853,0.0001187,53.2187,331.2393,83.1607,276.952,-0.00053408,-8.774e-05,0.0,0 STARLINK-4199,1 52857U 22062AD  23053.76886808 -.00008774  00000-0 -53408-3 0  9994,2 52857  53.2187 331.2393 0001187  83.1607 276.9520 15.08823853 38703,6917.93,95.439,540.616,538.974,0.0
52857.0,STARLINK-4199,PAYLOAD,2023-02-22 20:02:33,15.08825769,0.0001128,53.218,330.9399,81.1305,278.9814,-0.00040603,-6.741e-05,0.0,0 STARLINK-4199,1 52857U 22062AD  23053.83510831 -.00006741  00000-0 -40603-3 0  9997,2 52857  53.2180 330.9399 0001128  81.1305 278.9814 15.08825769 38229,6917.924,95.438,540.569,539.009,0.0
52857.0,STARLINK-4199,PAYLOAD,2023-02-23 13:31:48,15.08843889,0.000141,53.2171,327.6684,80.3101,279.8051,0.0014536,0.00022924,0.0,0 STARLINK-4199,1 52857U 22062AD  23054.56375470  .00022924  00000-0  14536-2 0  9990,2 52857  53.2171 327.6684 0001410  80.3101 279.8051 15.08843889 38820,6917.869,95.437,540.709,538.758,0.0
52857.0,STARLINK-4199,PAYLOAD,2023-02-23 19:53:20,15.0886439,0.0001399,53.2172,326.4794,83.4758,276.6393,0.0018267,0.00028923,0.0,0 STARLINK-4199,1 52857U 22062AD  23054.82871184  .00028923  00000-0  18267-2 0  9992,2 52857  53.2172 326.4794 0001399  83.4758 276.6393 15.08864390 38372,6917.806,95.436,540.639,538.703,0.0
52857.0,STARLINK-4199,PAYLOAD,2023-02-24 00:39:29,15.08877624,0.0001378,53.2173,325.5876,81.3357,278.7791,0.0019277,0.00030556,0.0,0 STARLINK-4199,1 52857U 22062AD  23055.02742725  .00030556  00000-0  19277-2 0  9990,2 52857  53.2173 325.5876 0001378  81.3357 278.7791 15.08877624 38899,6917.765,95.435,540.584,538.677,0.0
52857.0,STARLINK-4199,PAYLOAD,2023-02-24 18:08:44,15.08857184,0.0001558,53.2172,322.3162,77.3485,282.7681,0.001137,0.00017862,0.0,0 STARLINK-4199,1 52857U 22062AD  23055.75606728  .00017862  00000-0  11370-2 0  9993,2 52857  53.2172 322.3162 0001558  77.3485 282.7681 15.08857184 38519,6917.828,95.436,540.771,538.615,0.0
52857.0,STARLINK-4199,PAYLOAD,2023-02-24 22:54:53,15.08853147,0.000138,53.2172,321.4241,94.4785,265.6365,0.0011787,0.00018527,0.0,0 STARLINK-4199,1 52857U 22062AD  23055.95478766  .00018527  00000-0  11787-2 0  9995,2 52857  53.2172 321.4241 0001380  94.4785 265.6365 15.08853147 39035,6917.84,95.437,540.66,538.751,0.0
52857.0,STARLINK-4199,PAYLOAD,2023-02-25 03:41:03,15.08841629,0.0001315,53.2174,320.5323,67.9432,292.1699,0.0010961,0.000172,0.0,0 STARLINK-4199,1 52857U 22062AD  23056.15350936  .00017200  00000-0  10961-2 0  9996,2 52857  53.2174 320.5323 0001315  67.9432 292.1699 15.08841629 39060,6917.875,95.437,540.65,538.831,0.0
